start=new Date('2023-04-17T00:00:00.000Z').valueOf();
sats=[{"COUNTRY_CODE":"US","OBJECT_NAME":"STARLINK-5048","DECAY_DATE":null,"RA_OF_ASC_NODE":"22.8543","REF_FRAME":"TEME","NORAD_CAT_ID":"53911","REV_AT_EPOCH":"3213","MEAN_ELEMENT_THEORY":"SGP4","MEAN_MOTION_DOT":"-0.00000193","LAUNCH_DATE":"2022-09-24","CLASSIFICATION_TYPE":"U","MEAN_MOTION":"15.08835116","SITE":"AFETR","APOAPSIS":"540.653","TLE_LINE1":"1 53911U 22119AB  23106.91090736 -.00000193  00000-0  59702-5 0  9993","TLE_LINE2":"2 53911  53.2183  22.8543 0001291  98.0906 262.0232 15.08835116 32136","GP_ID":"230200865","BSTAR":"0.00000597020000","SEMIMAJOR_AXIS":"6917.895","MEAN_ANOMALY":"262.0232","PERIOD":"95.438","EPOCH":"2023-04-16T21:51:42.395904","ECCENTRICITY":"0.00012910","OBJECT_ID":"2022-119AB","ARG_OF_PERICENTER":"98.0906","TIME_SYSTEM":"UTC","EPHEMERIS_TYPE":"0","MEAN_MOTION_DDOT":"0.0000000000000","INCLINATION":"53.2183","FILE":"3888799","CENTER_NAME":"EARTH","RCS_SIZE":"LARGE","ELEMENT_SET_NO":"999","OBJECT_TYPE":"PAYLOAD","PERIAPSIS":"538.867"},{"REV_AT_EPOCH":"3212","NORAD_CAT_ID":"53912","MEAN_ELEMENT_THEORY":"SGP4","RA_OF_ASC_NODE":"22.8412","REF_FRAME":"TEME","DECAY_DATE":null,"COUNTRY_CODE":"US","OBJECT_NAME":"STARLINK-5059","SITE":"AFETR","APOAPSIS":"540.506","MEAN_MOTION":"15.08834443","LAUNCH_DATE":"2022-09-24","CLASSIFICATION_TYPE":"U","MEAN_MOTION_DOT":"-0.00000876","BSTAR":"-0.00003699900000","SEMIMAJOR_AXIS":"6917.897","GP_ID":"230201119","TLE_LINE1":"1 53912U 22119AC  23106.79308059 -.00000876  00000-0 -36999-4 0  9991","TLE_LINE2":"2 53912  53.2182  22.8412 0001075 110.8930 249.2177 15.08834443 32127","FILE":"3888799","CENTER_NAME":"EARTH","RCS_SIZE":"LARGE","ELEMENT_SET_NO":"999","PERIAPSIS":"539.019","OBJECT_TYPE":"PAYLOAD","MEAN_MOTION_DDOT":"0.0000000000000","INCLINATION":"53.2182","ARG_OF_PERICENTER":"110.8930","TIME_SYSTEM":"UTC","EPHEMERIS_TYPE":"0","PERIOD":"95.438","ECCENTRICITY":"0.00010750","MEAN_ANOMALY":"249.2177","EPOCH":"2023-04-16T19:02:02.162976","OBJECT_ID":"2022-119AC"},{"PERIAPSIS":"538.864","OBJECT_TYPE":"PAYLOAD","RCS_SIZE":"LARGE","ELEMENT_SET_NO":"999","FILE":"3888207","CENTER_NAME":"EARTH","MEAN_MOTION_DDOT":"0.0000000000000","INCLINATION":"53.2179","EPHEMERIS_TYPE":"0","TIME_SYSTEM":"UTC","ARG_OF_PERICENTER":"92.0199","OBJECT_ID":"2022-119AD","PERIOD":"95.437","EPOCH":"2023-04-16T03:55:55.504704","MEAN_ANOMALY":"268.0934","ECCENTRICITY":"0.00012310","SEMIMAJOR_AXIS":"6917.850","BSTAR":"0.00022329000000","GP_ID":"230135738","TLE_LINE2":"2 53913  53.2179  26.0089 0001231  92.0199 268.0934 15.08849815 31603","TLE_LINE1":"1 53913U 22119AD  23106.16383686  .00003268  00000-0  22329-3 0  9999","APOAPSIS":"540.567","SITE":"AFETR","MEAN_MOTION":"15.08849815","CLASSIFICATION_TYPE":"U","LAUNCH_DATE":"2022-09-24","MEAN_MOTION_DOT":"0.00003268","MEAN_ELEMENT_THEORY":"SGP4","NORAD_CAT_ID":"53913","REV_AT_EPOCH":"3160","REF_FRAME":"TEME","RA_OF_ASC_NODE":"26.0089","DECAY_DATE":null,"OBJECT_NAME":"STARLINK-5053","COUNTRY_CODE":"US"},{"SITE":"AFETR","APOAPSIS":"540.368","MEAN_MOTION":"15.08850844","LAUNCH_DATE":"2022-09-24","CLASSIFICATION_TYPE":"U","MEAN_MOTION_DOT":"0.00002532","REV_AT_EPOCH":"3160","NORAD_CAT_ID":"53914","MEAN_ELEMENT_THEORY":"SGP4","RA_OF_ASC_NODE":"25.9888","REF_FRAME":"TEME","DECAY_DATE":null,"COUNTRY_CODE":"US","OBJECT_NAME":"STARLINK-5040","CENTER_NAME":"EARTH","FILE":"3888626","RCS_SIZE":"LARGE","ELEMENT_SET_NO":"999","PERIAPSIS":"539.056","OBJECT_TYPE":"PAYLOAD","INCLINATION":"53.2176","MEAN_MOTION_DDOT":"0.0000000000000","TIME_SYSTEM":"UTC","ARG_OF_PERICENTER":"109.6404","EPHEMERIS_TYPE":"0","ECCENTRICITY":"0.00009480","PERIOD":"95.437","MEAN_ANOMALY":"250.4690","EPOCH":"2023-04-16T03:50:36.906432","OBJECT_ID":"2022-119AE","BSTAR":"0.00017704000000","SEMIMAJOR_AXIS":"6917.847","GP_ID":"230171108","TLE_LINE1":"1 53914U 22119AE  23106.16014938  .00002532  00000-0  17704-3 0  9995","TLE_LINE2":"2 53914  53.2176  25.9888 0000948 109.6404 250.4690 15.08850844 31602"},{"PERIAPSIS":"538.851","OBJECT_TYPE":"PAYLOAD","FILE":"3888799","CENTER_NAME":"EARTH","RCS_SIZE":"LARGE","ELEMENT_SET_NO":"999","INCLINATION":"53.2181","MEAN_MOTION_DDOT":"0.0000000000000","EPHEMERIS_TYPE":"0","TIME_SYSTEM":"UTC","ARG_OF_PERICENTER":"93.7574","OBJECT_ID":"2022-119AF","EPOCH":"2023-04-16T21:41:05.793792","PERIOD":"95.437","MEAN_ANOMALY":"266.3566","ECCENTRICITY":"0.00012880","SEMIMAJOR_AXIS":"6917.877","BSTAR":"-0.00001681300000","GP_ID":"230200365","TLE_LINE2":"2 53915  53.2181  22.8110 0001288  93.7574 266.3566 15.08841027 32132","TLE_LINE1":"1 53915U 22119AF  23106.90353928 -.00000555  00000-0 -16813-4 0  9999","APOAPSIS":"540.633","SITE":"AFETR","MEAN_MOTION":"15.08841027","CLASSIFICATION_TYPE":"U","LAUNCH_DATE":"2022-09-24","MEAN_MOTION_DOT":"-0.00000555","MEAN_ELEMENT_THEORY":"SGP4","REV_AT_EPOCH":"3213","NORAD_CAT_ID":"53915","REF_FRAME":"TEME","RA_OF_ASC_NODE":"22.8110","DECAY_DATE":null,"COUNTRY_CODE":"US","OBJECT_NAME":"STARLINK-5017"},{"OBJECT_NAME":"STARLINK-5051","COUNTRY_CODE":"US","DECAY_DATE":null,"RA_OF_ASC_NODE":"2.3024","REF_FRAME":"TEME","NORAD_CAT_ID":"53916","REV_AT_EPOCH":"130","MEAN_ELEMENT_THEORY":"SGP4","MEAN_MOTION_DOT":"-0.00091536","LAUNCH_DATE":"2022-09-24","CLASSIFICATION_TYPE":"U","MEAN_MOTION":"15.08882900","SITE":"AFETR","APOAPSIS":"540.305","TLE_LINE1":"1 53916U 22119AG  23106.91667824 -.00091536  00000-0 -58005-2 0  9990","TLE_LINE2":"2 53916  53.2183   2.3024 0000998 104.1201 237.7193 15.08882900  1301","GP_ID":"230201620","BSTAR":"-0.00580050000000","SEMIMAJOR_AXIS":"6917.749","PERIOD":"95.435","MEAN_ANOMALY":"237.7193","ECCENTRICITY":"0.00009980","EPOCH":"2023-04-16T22:00:00.999936","OBJECT_ID":"2022-119AG","TIME_SYSTEM":"UTC","ARG_OF_PERICENTER":"104.1201","EPHEMERIS_TYPE":"0","INCLINATION":"53.2183","MEAN_MOTION_DDOT":"0.0000000000000","CENTER_NAME":"EARTH","FILE":"3888799","RCS_SIZE":"LARGE","ELEMENT_SET_NO":"999","OBJECT_TYPE":"PAYLOAD","PERIAPSIS":"538.924"},{"MEAN_MOTION_DOT":"0.00003684","CLASSIFICATION_TYPE":"U","LAUNCH_DATE":"2022-09-24","MEAN_MOTION":"15.08842214","APOAPSIS":"540.594","SITE":"AFETR","OBJECT_NAME":"STARLINK-5036","COUNTRY_CODE":"US","DECAY_DATE":null,"REF_FRAME":"TEME","RA_OF_ASC_NODE":"26.0345","MEAN_ELEMENT_THEORY":"SGP4","NORAD_CAT_ID":"53917","REV_AT_EPOCH":"3202","OBJECT_ID":"2022-119AH","PERIOD":"95.437","ECCENTRICITY":"0.00012360","MEAN_ANOMALY":"263.6113","EPOCH":"2023-04-16T04:01:13.964736","EPHEMERIS_TYPE":"0","TIME_SYSTEM":"UTC","ARG_OF_PERICENTER":"96.5020","INCLINATION":"53.2167","MEAN_MOTION_DDOT":"0.0000000000000","OBJECT_TYPE":"PAYLOAD","PERIAPSIS":"538.884","ELEMENT_SET_NO":"999","RCS_SIZE":"LARGE","CENTER_NAME":"EARTH","FILE":"3888626","TLE_LINE2":"2 53917  53.2167  26.0345 0001236  96.5020 263.6113 15.08842214 32029","TLE_LINE1":"1 53917U 22119AH  23106.16752274  .00003684  00000-0  24939-3 0  9997","GP_ID":"230170867","SEMIMAJOR_AXIS":"6917.874","BSTAR":"0.00024939000000"},{"GP_ID":"230170608","SEMIMAJOR_AXIS":"6917.845","BSTAR":"0.00041475000000","TLE_LINE2":"2 53918  53.2186  25.9659 0001021 115.8012 244.3085 15.08851427 31608","TLE_LINE1":"1 53918U 22119AJ  23106.15646521  .00006321  00000-0  41475-3 0  9999","MEAN_MOTION_DDOT":"0.0000000000000","INCLINATION":"53.2186","OBJECT_TYPE":"PAYLOAD","PERIAPSIS":"539.004","FILE":"3888626","CENTER_NAME":"EARTH","ELEMENT_SET_NO":"999","RCS_SIZE":"LARGE","OBJECT_ID":"2022-119AJ","MEAN_ANOMALY":"244.3085","PERIOD":"95.437","EPOCH":"2023-04-16T03:45:18.594144","ECCENTRICITY":"0.00010210","EPHEMERIS_TYPE":"0","ARG_OF_PERICENTER":"115.8012","TIME_SYSTEM":"UTC","REF_FRAME":"TEME","RA_OF_ASC_NODE":"25.9659","MEAN_ELEMENT_THEORY":"SGP4","NORAD_CAT_ID":"53918","REV_AT_EPOCH":"3160","OBJECT_NAME":"STARLINK-5012","COUNTRY_CODE":"US","DECAY_DATE":null,"MEAN_MOTION":"15.08851427","APOAPSIS":"540.417","SITE":"AFETR","MEAN_MOTION_DOT":"0.00006321","CLASSIFICATION_TYPE":"U","LAUNCH_DATE":"2022-09-24"},{"MEAN_MOTION_DOT":"0.00001328","LAUNCH_DATE":"2022-09-24","CLASSIFICATION_TYPE":"U","MEAN_MOTION":"15.08832489","SITE":"AFETR","APOAPSIS":"540.500","COUNTRY_CODE":"US","OBJECT_NAME":"STARLINK-5023","DECAY_DATE":null,"RA_OF_ASC_NODE":"23.2667","REF_FRAME":"TEME","REV_AT_EPOCH":"3211","NORAD_CAT_ID":"53919","MEAN_ELEMENT_THEORY":"SGP4","PERIOD":"95.438","EPOCH":"2023-04-16T17:58:29.298144","MEAN_ANOMALY":"269.9434","ECCENTRICITY":"0.00010570","OBJECT_ID":"2022-119AK","ARG_OF_PERICENTER":"90.1679","TIME_SYSTEM":"UTC","EPHEMERIS_TYPE":"0","MEAN_MOTION_DDOT":"0.0000000000000","INCLINATION":"53.2184","FILE":"3888799","CENTER_NAME":"EARTH","ELEMENT_SET_NO":"999","RCS_SIZE":"LARGE","OBJECT_TYPE":"PAYLOAD","PERIAPSIS":"539.037","TLE_LINE1":"1 53919U 22119AK  23106.74895021  .00001328  00000-0  10153-3 0  9997","TLE_LINE2":"2 53919  53.2184  23.2667 0001057  90.1679 269.9434 15.08832489 32115","GP_ID":"230200866","BSTAR":"0.00010153000000","SEMIMAJOR_AXIS":"6917.903"},{"OBJECT_ID":"2022-119AL","PERIOD":"95.438","ECCENTRICITY":"0.00013980","MEAN_ANOMALY":"273.2426","EPOCH":"2023-04-16T17:47:52.219104","EPHEMERIS_TYPE":"0","TIME_SYSTEM":"UTC","ARG_OF_PERICENTER":"86.8726","MEAN_MOTION_DDOT":"0.0000000000000","INCLINATION":"53.2178","PERIAPSIS":"538.797","OBJECT_TYPE":"PAYLOAD","FILE":"3888799","CENTER_NAME":"EARTH","ELEMENT_SET_NO":"999","RCS_SIZE":"LARGE","TLE_LINE2":"2 53920  53.2178  23.2219 0001398  86.8726 273.2426 15.08833980 32112","TLE_LINE1":"1 53920U 22119AL  23106.74157661  .00001783  00000-0  13011-3 0  9991","GP_ID":"230201120","SEMIMAJOR_AXIS":"6917.899","BSTAR":"0.00013011000000","MEAN_MOTION_DOT":"0.00001783","CLASSIFICATION_TYPE":"U","LAUNCH_DATE":"2022-09-24","MEAN_MOTION":"15.08833980","APOAPSIS":"540.731","SITE":"AFETR","COUNTRY_CODE":"US","OBJECT_NAME":"STARLINK-5025","DECAY_DATE":null,"REF_FRAME":"TEME","RA_OF_ASC_NODE":"23.2219","MEAN_ELEMENT_THEORY":"SGP4","NORAD_CAT_ID":"53920","REV_AT_EPOCH":"3211"}];
